CUTE-1 (CO-55)          
1 27844U 03031E   26130.03268044  .00000217  00000+0  11273-3 0  9997
2 27844  98.6748 139.0706 0008430 300.2447  59.7897 14.24311737186249
CUBESAT XI-IV (CO-57)   
1 27848U 03031J   26130.00204972  .00000178  00000+0  97550-4 0  9997
2 27848  98.6780 138.7836 0008631 321.1875  38.8683 14.23600037185949
CUBESAT XI-V            
1 28895U 05043F   26129.94355882  .00000954  00000+0  15830-3 0  9995
2 28895  98.2944 284.7743 0013320 331.4479  28.5997 14.72530160 96122
CUTE-1.7+APD II (CO-65) 
1 32785U 08021C   26130.19296007  .00002989  00000+0  19263-3 0  9993
2 32785  97.8264 110.8381 0009893 147.9640 212.2192 15.09091555979469
CANX-2                  
1 32790U 08021H   26130.20323762  .00002443  00000+0  17492-3 0  9997
2 32790  97.8630 109.2572 0010848 162.5140 197.6461 15.05347787979097
SEEDS II (CO-66)        
1 32791U 08021J   26129.92693767  .00012761  00000+0  42249-3 0  9992
2 32791  97.7531 126.0413 0005093  90.4223 269.7600 15.31449664981438
SWISSCUBE               
1 35932U 09051B   26130.19598455  .00000680  00000+0  14421-3 0  9993
2 35932  98.4060  37.4208 0006398 343.1003  16.9984 14.62406760883603
BEESAT-1                
1 35933U 09051C   26129.70661936  .00000613  00000+0  13314-3 0  9990
2 35933  98.3987  36.6382 0005285   2.2534 357.8689 14.61656665883565
ITUPSAT1                
1 35935U 09051E   26130.00647469  .00000536  00000+0  12088-3 0  9993
2 35935  98.4072  36.1747 0007674   7.7374 352.3943 14.60382049883169
TISAT 1                 
1 36799U 10035E   26129.81530306  .00013582  00000+0  46645-3 0  9995
2 36799  98.0691  73.0133 0003805  59.1420 301.0192 15.30261123861839
AEROCUBE 4.5A           
1 38767U 12048K   26130.16729917  .00127214  00000+0  75373-3 0  9994
2 38767  64.6294 163.7805 0019545 217.3219 142.6577 15.77183330366637
STRAND-1                
1 39090U 13009E   26130.04222420  .00000198  00000+0  80942-4 0  9996
2 39090  98.3917 311.2173 0008389 353.6100   6.4979 14.37140425691589
BRITE-AUSTRIA           
1 39091U 13009F   26130.03873477  .00000119  00000+0  55025-4 0  9997
2 39091  98.3988 310.4206 0010128   1.2954 358.8257 14.36526638691578
NEE-01 PEGASO           
1 39151U 13018B   26129.94429354  .00002322  00000+0  22640-3 0  9997
2 39151  98.1173 272.8478 0011236 291.9314  68.0710 14.93473057704994
POPACS 2                
1 39269U 13055E   26130.11906979  .00011649  00000+0  19985-3 0  9992
2 39269  80.9922 187.7417 0419631 316.2427  40.6221 14.90354447657548
POPACS 3                
1 39270U 13055F   26130.10672913  .00012005  00000+0  28758-3 0  9996
2 39270  81.0006 270.4455 0554992 185.7982 173.6621 14.55184213633012
ZACUBE-1 (TSHEPISOSAT)  
1 39417U 13066B   26129.87672516  .00003496  00000+0  27449-3 0  9992
2 39417  97.8123  92.0065 0042321  22.1026 338.2010 15.00890447674982
WNISAT-1                
1 39423U 13066H   26129.98630000  .00000347  00000+0  72140-4 0  9994
2 39423  97.7156 281.8646 0162919 352.7453   7.1391 14.58015570661167
TRITON-1                
1 39427U 13066M   26130.20610609  .00002387  00000+0  29029-3 0  9991
2 39427  97.8261  40.8787 0090428 359.2235   0.8823 14.81539010668469
GOMX-1                  
1 39430U 13066Q   26130.18731876  .00001275  00000+0  19821-3 0  9996
2 39430  97.6511 333.0455 0128242 198.9548 160.6863 14.69310375664337
CUBEBUG-2 (LO-74)       
1 39440U 13066AA  26130.07782065  .00002746  00000+0  25808-3 0  9997
2 39440  97.8887  78.9107 0058696 152.1960 208.2418 14.93479876671309
NEE-02 KRYSAOR          
1 39441U 13066AB  26129.77406580  .00001143  00000+0  13074-3 0  9990
2 39441  97.8877  69.2722 0065772 194.4308 165.5032 14.86476736670493
FUNCUBE-1 (AO-73)       
1 39444U 13066AE  26130.19895892  .00005928  00000+0  37381-3 0  9991
2 39444  97.8258 100.8719 0035752 335.8081  24.1466 15.08992876673937
UWE-3                   
1 39446U 13066AG  26130.11235373  .00002318  00000+0  20301-3 0  9991
2 39446  97.8682  85.9470 0051120  86.5509 274.1557 14.96709203671885
BRITE-CA1 (TORONTO)     
1 40020U 14033L   26130.19219956  .00000537  00000+0  88217-4 0  9995
2 40020  97.9684 259.8338 0079481  39.4136 321.2817 14.72624452636628
DUCHIFAT-1              
1 40021U 14033M   26130.13449355  .00053902  00000+0  71643-3 0  9996
2 40021  98.0512 184.1725 0005687 194.5901 165.5189 15.58020108649810
NANOSATC-BR1            
1 40024U 14033Q   26130.03141204  .00011355  00000+0  39072-3 0  9996
2 40024  98.0758 159.0728 0002166 341.9128  18.2034 15.30254796648147
QB50P1                  
1 40025U 14033R   26129.98242223  .00006117  00000+0  30723-3 0  9996
2 40025  98.0987 138.4674 0008656   9.1210 351.0178 15.17667201647238
QB50P2                  
1 40032U 14033Y   26129.98777197  .00005373  00000+0  29431-3 0  9994
2 40032  98.0761 124.5079 0006043 315.4088  44.6656 15.14671451646880
PERSEUS-M2              
1 40037U 14033AD  26130.19164979  .00001268  00000+0  12023-3 0  9990
2 40037  97.9939  79.9687 0013089  67.6671 292.5935 14.95390020645106
