OBJECT_NAME,OBJECT_ID,EPOCH,MEAN_MOTION,ECCENTRICITY,INCLINATION,RA_OF_ASC_NODE,ARG_OF_PERICENTER,MEAN_ANOMALY,EPHEMERIS_TYPE,CLASSIFICATION_TYPE,NORAD_CAT_ID,ELEMENT_SET_NO,REV_AT_EPOCH,BSTAR,MEAN_MOTION_DOT,MEAN_MOTION_DDOT
CUTE-1 (CO-55),2003-031E,2026-05-10T00:47:03.590016,14.24311737,.000843,98.6748,139.0706,300.2447,59.7897,0,U,27844,999,18624,.11273E-3,.217E-5,0
CUBESAT XI-IV (CO-57),2003-031J,2026-05-10T00:02:57.095808,14.23600037,.0008631,98.6780,138.7836,321.1875,38.8683,0,U,27848,999,18594,.9755E-4,.178E-5,0
CUBESAT XI-V,2005-043F,2026-05-09T22:38:43.482048,14.72530160,.001332,98.2944,284.7743,331.4479,28.5997,0,U,28895,999,9612,.1583E-3,.954E-5,0
CUTE-1.7+APD II (CO-65),2008-021C,2026-05-10T04:37:51.750048,15.09091555,.0009893,97.8264,110.8381,147.9640,212.2192,0,U,32785,999,97946,.19263E-3,.2989E-4,0
CANX-2,2008-021H,2026-05-10T04:52:39.730368,15.05347787,.0010848,97.8630,109.2572,162.5140,197.6461,0,U,32790,999,97909,.17492E-3,.2443E-4,0
SEEDS II (CO-66),2008-021J,2026-05-09T22:14:47.414688,15.31449664,.0005093,97.7531,126.0413,90.4223,269.7600,0,U,32791,999,98143,.42249E-3,.12761E-3,0
SWISSCUBE,2009-051B,2026-05-10T04:42:13.065120,14.62406760,.0006398,98.4060,37.4208,343.1003,16.9984,0,U,35932,999,88360,.14421E-3,.68E-5,0
BEESAT-1,2009-051C,2026-05-09T16:57:31.912704,14.61656665,.00052855,98.3987,36.6382,2.2534,357.8689,0,U,35933,999,88356,.13314044E-3,.613E-5,0
ITUPSAT1,2009-051E,2026-05-10T00:09:19.413216,14.60382049,.0007674,98.4072,36.1747,7.7374,352.3943,0,U,35935,999,88316,.12088E-3,.536E-5,0
TISAT 1,2010-035E,2026-05-09T19:34:02.184384,15.30261123,.00038054,98.0691,73.0133,59.1420,301.0192,0,U,36799,999,86183,.46644535E-3,.13582E-3,0
AEROCUBE 4.5A,2012-048K,2026-05-10T04:00:54.648288,15.77183330,.0019545,64.6294,163.7805,217.3219,142.6577,0,U,38767,999,36663,.75373E-3,.127214E-2,0
STRAND-1,2013-009E,2026-05-10T01:00:48.170880,14.37140425,.0008389,98.3917,311.2173,353.6100,6.4979,0,U,39090,999,69158,.80942E-4,.198E-5,0
BRITE-AUSTRIA,2013-009F,2026-05-10T00:55:46.684128,14.36526638,.0010128,98.3988,310.4206,1.2954,358.8257,0,U,39091,999,69157,.55025E-4,.119E-5,0
NEE-01 PEGASO,2013-018B,2026-05-09T22:39:46.961856,14.93473057,.0011236,98.1173,272.8478,291.9314,68.0710,0,U,39151,999,70499,.2264E-3,.2322E-4,0
POPACS 2,2013-055E,2026-05-10T02:51:27.629856,14.90354447,.0419631,80.9922,187.7417,316.2427,40.6221,0,U,39269,999,65754,.19985E-3,.11649E-3,0
POPACS 3,2013-055F,2026-05-10T02:33:41.396832,14.55184213,.0554992,81.0006,270.4455,185.7982,173.6621,0,U,39270,999,63301,.28758E-3,.12005E-3,0
ZACUBE-1 (TSHEPISOSAT),2013-066B,2026-05-09T21:02:29.053824,15.00890447,.00423212,97.8123,92.0065,22.1026,338.2010,0,U,39417,999,67498,.2744932E-3,.3496E-4,0
WNISAT-1,2013-066H,2026-05-09T23:40:16.320000,14.58015570,.0162919,97.7156,281.8646,352.7453,7.1391,0,U,39423,999,66116,.7214E-4,.347E-5,0
TRITON-1,2013-066M,2026-05-10T04:56:47.566176,14.81539010,.0090428,97.8261,40.8787,359.2235,0.8823,0,U,39427,999,66846,.29029E-3,.2387E-4,0
GOMX-1,2013-066Q,2026-05-10T04:29:44.340864,14.69310375,.0128242,97.6511,333.0455,198.9548,160.6863,0,U,39430,999,66433,.19821E-3,.1275E-4,0
CUBEBUG-2 (LO-74),2013-066AA,2026-05-10T01:52:03.704160,14.93479876,.0058696,97.8887,78.9107,152.1960,208.2418,0,U,39440,999,67130,.25808E-3,.2746E-4,0
NEE-02 KRYSAOR,2013-066AB,2026-05-09T18:34:39.285120,14.86476736,.00657728,97.8877,69.2722,194.4308,165.5032,0,U,39441,999,67049,.13074042E-3,.1143E-4,0
FUNCUBE-1 (AO-73),2013-066AE,2026-05-10T04:46:30.050688,15.08992876,.0035752,97.8258,100.8719,335.8081,24.1466,0,U,39444,999,67393,.37381E-3,.5928E-4,0
UWE-3,2013-066AG,2026-05-10T02:41:47.362272,14.96709203,.005112,97.8682,85.9470,86.5509,274.1557,0,U,39446,999,67188,.20301E-3,.2318E-4,0
BRITE-CA1 (TORONTO),2014-033L,2026-05-10T04:36:46.041984,14.72624452,.0079481,97.9684,259.8338,39.4136,321.2817,0,U,40020,999,63662,.88217E-4,.537E-5,0
DUCHIFAT-1,2014-033M,2026-05-10T03:13:40.242720,15.58020108,.0005687,98.0512,184.1725,194.5901,165.5189,0,U,40021,999,64981,.71643E-3,.53902E-3,0
NANOSATC-BR1,2014-033Q,2026-05-10T00:45:14.000256,15.30254796,.0002166,98.0758,159.0728,341.9128,18.2034,0,U,40024,999,64814,.39072E-3,.11355E-3,0
QB50P1,2014-033R,2026-05-09T23:34:41.280672,15.17667201,.0008656,98.0987,138.4674,9.1210,351.0178,0,U,40025,999,64723,.30723E-3,.6117E-4,0
QB50P2,2014-033Y,2026-05-09T23:42:23.498208,15.14671451,.0006043,98.0761,124.5079,315.4088,44.6656,0,U,40032,999,64688,.29431E-3,.5373E-4,0
PERSEUS-M2,2014-033AD,2026-05-10T04:35:58.541856,14.95390020,.0013089,97.9939,79.9687,67.6671,292.5935,0,U,40037,999,64510,.12023E-3,.1268E-4,0
